0 SL-12 R/B(AUX MOTOR)
1 23402U 94076G   13281.43592315  .00001015  00000-0  47422-3 0  4370
2 23402 064.8599 167.2603 5818724 354.4759 271.7985 04.25224220292444
0 SL-12 R/B(AUX MOTOR)
1 23402U 94076G   13283.22166983  .00000874  00000-0  46811-3 0  4381
2 23402 064.8606 166.5839 5818585 354.4009 125.4306 04.25231461292525
0 SL-12 R/B(AUX MOTOR)
1 23402U 94076G   13283.61092227  .00001220  00000-0  62701-3 0  4396
2 23402 064.8563 166.4340 5818300 354.3895 001.3092 04.25227333292549
0 SL-12 R/B(AUX MOTOR)
1 23402U 94076G   13286.17026824  .00000695  00000-0  47553-3 0  4405
2 23402 064.8619 165.4672 5818348 354.2771 319.2507 04.25237056292648
0 SL-12 R/B(AUX MOTOR)
1 23402U 94076G   13287.61194410  .00000837  00000-0  53838-3 0  4414
2 23402 064.8627 164.9213 5818247 354.2166 006.2367 04.25240867292706
0 SL-12 R/B(AUX MOTOR)
1 23402U 94076G   13288.79576141  .00000894  00000-0  53286-3 0  4420
2 23402 064.8633 164.4730 5818141 354.1665 018.4994 04.25244446292762
0 SL-12 R/B(AUX MOTOR)
1 23402U 94076G   13290.16114603  .00000951  00000-0  50947-3 0  4431
2 23402 064.8640 163.9562 5818024 354.1084 308.7369 04.25247551292819
0 SL-12 R/B(AUX MOTOR)
1 23402U 94076G   13291.23346053  .00001048  00000-0  52317-3 0  4448
2 23402 064.8644 163.5501 5817937 354.0633 150.3278 04.25250264292863
0 SL-12 R/B(AUX MOTOR)
1 23402U 94076G   13292.78920956  .00001181  00000-0  56346-3 0  4454
2 23402 064.8649 162.9608 5817802 353.9980 012.0221 04.25253364292926
0 SL-12 R/B(AUX MOTOR)
1 23402U 94076G   13294.66842830  .00001142  00000-0  55783-3 0  4469
2 23402 064.8658 162.2491 5817652 353.9181 008.9416 04.25258349293003
